{
  "type": "FeatureCollection",
  "features": [
    {
      "type": "Feature",
      "properties": {
        "creator": "BRouter-1.7.10",
        "name": "brouter_hiking-mountain_0",
        "track-length": "9973",
        "filtered ascend": "784",
        "plain-ascend": "726",
        "total-time": "9374",
        "total-energy": "748357",
        "cost": "9974",
        "messages": [
          ["Longitude", "Latitude", "Elevation", "Distance", "CostPerKm", "ElevCost", "TurnCost", "NodeCost", "InitialCost", "WayTags", "NodeTags", "Time", "Energy"],
          ["-121398132", "47438394", "1173", "3628", "1000", "0", "0", "0", "0", "highway=path surface=ground foot=designated bicycle=no sac_scale=hiking route_hiking_nwn=yes", "nodeaccessgranted=yes ford=yes", "3328", "253980"],
          ["-121393788", "47437375", "1315", "1521", "1000", "0", "0", "0", "0", "highway=path surface=ground foot=designated bicycle=no sac_scale=hiking route_hiking_nwn=yes", "nodeaccessgranted=yes ford=yes", "4820", "386126"],
          ["-121377781", "47453543", "1659", "4824", "1000", "0", "0", "0", "0", "highway=path surface=ground foot=designated bicycle=no sac_scale=hiking route_hiking_nwn=yes", "", "9374", "748357"]
        ],
        "times": [0.721,8.36,21.776,37.544,42.218,53.803,64.59,76.99,92.116,107.566,119.004,129.797,137.339,143.283,148.409,156.978,171.332,181.57,208.009,225.812,241.124,258.393,286.759,303.421,317.386,331.931,356.794,381.275,388.386,396.628,409.141,419.911,444.945,452.55,462.826,478.119,497.655,505.709,515.566,523.432,543.538,576.602,585.423,608.581,616.718,631.299,654.878,661.16,664.799,672.097,679.14,700.284,713.435,727.735,738.151,775.527,786.465,807.768,824.444,836.949,842.91,845.951,853.166,878.731,892.258,900.336,906.306,913.831,939.607,964.91,978.997,1004.389,1038.316,1090.822,1106.389,1128.208,1135.985,1148.904,1160.838,1169.977,1178.022,1201.513,1232.891,1247.647,1263.952,1269.842,1274.836,1280.874,1286.693,1304.764,1314.382,1348.469,1371.273,1385.835,1408.632,1425.077,1440.536,1459.073,1470.132,1504.328,1520.368,1563.44,1577.993,1595.612,1603.255,1617.575,1643.227,1677.283,1706.592,1723.054,1733.455,1740.502,1748.471,1759.073,1768.514,1792.907,1816.628,1830.383,1843.531,1852.669,1860.496,1869.372,1903.161,1913.87,1929.958,1953.307,1971.977,1988.305,1993.442,1999.751,2013.505,2034.219,2051.092,2064.156,2081.466,2128.424,2138.614,2146.388,2165.218,2174.52,2182.835,2188.883,2196.115,2209.516,2216.191,2224.446,2231.167,2238.325,2246.333,2255.598,2276.029,2313.033,2344.122,2361.501,2368.684,2379.196,2381.538,2387.51,2392.573,2399.652,2406.402,2414.409,2439.307,2456.244,2464.926,2473.781,2482.174,2491.488,2505.523,2522.223,2530.932,2543.634,2555.86,2564.294,2571.285,2603.464,2654.015,2681.114,2691.365,2702.782,2764.098,2808.509,2819.221,2832.417,2839.449,2851.822,2865.681,2873.434,2892.185,2902.415,2913.633,2921.64,2927.763,2938.647,2946.157,2950.352,2956.548,2962.215,2971.301,2975.861,2982.5,2993.175,3011.824,3044.496,3058.014,3062.7,3074.444,3084.163,3088.066,3092.685,3103.079,3113.184,3122.577,3139.466,3159.034,3165.067,3172.486,3177.389,3181.703,3187.894,3203.875,3208.8,3216.912,3223.134,3239.608,3247.246,3273.273,3302.726,3307.87,3312.406,3317.851,3322.089,3328.399,3335.387,3342.384,3357.027,3384.724,3410.19,3426.624,3440.785,3447.979,3457.9,3463.12,3496.735,3523.007,3544.527,3577.552,3607.371,3695.358,3738.934,3757.933,3778.467,3797.393,3808.194,3824.144,3854.805,3896.866,3919.958,3933.6,3948.868,3958.713,3997.431,4004.731,4018.486,4029.931,4032.668,4035.505,4048.354,4052.373,4056.619,4062.111,4074.63,4087.711,4109.088,4120.751,4132.467,4134.989,4144.107,4156.628,4176.394,4224.235,4255.671,4278.236,4309.786,4322.601,4338.159,4382.859,4425.307,4532.385,4543.307,4556.333,4566.564,4587.949,4610.776,4636.255,4662.069,4673.143,4683.652,4695.229,4707.947,4723.226,4743.701,4753.202,4776.363,4783.807,4797.261,4813.239,4820.946,4830.875,4842.16,4847.596,4854.145,4861.196,4874.052,4884.992,4890.832,4893.798,4896.059,4898.296,4899.787,4902.789,4907.477,4909.894,4917.528,4923.798,4927.337,4930.042,4937.725,4941.599,4946.543,4953.75,4963.464,4976.965,4996.277,5018.534,5047.083,5083.519,5146.935,5195.579,5223.082,5232.722,5240.983,5258.767,5267.529,5276.312,5284.854,5291.872,5311.936,5316.901,5322.978,5327.479,5332.122,5339.878,5344.622,5355.769,5365.479,5369.859,5375.717,5379.934,5389.97,5398.766,5412.675,5426.418,5440.568,5468.096,5527.451,5535.348,5540.502,5546.57,5556.102,5567.449,5575.06,5583.252,5590.719,5611.511,5620.688,5627.517,5632.474,5637.696,5647.015,5653.94,5659.805,5670.092,5676.248,5683.571,5695.874,5705.377,5712.685,5725.823,5740.357,5755.813,5769.551,5781.662,5799.403,5814.892,5824.971,5833.51,5838.084,5848.293,5858.203,5866.369,5874.78,5878.363,5884.716,5894.178,5904.72,5930.443,5942.035,5963.01,5981.894,5991.638,5997.297,6001.944,6007.585,6014.219,6021.524,6026.778,6037.68,6048.461,6055.812,6067.654,6083.882,6093.161,6101.843,6112.222,6119.19,6127.613,6140.87,6158.666,6164.733,6168.511,6172.343,6187.81,6202.811,6209.517,6214.012,6269.88,6284.42,6299.056,6313.152,6317.233,6323.048,6327.735,6332.604,6365.482,6372.525,6378.638,6381.753,6389.895,6407.252,6412.442,6415.083,6417.823,6429.201,6437.476,6449.863,6463.7,6472.306,6481.226,6502.059,6506.587,6509.326,6515.077,6526.543,6553.854,6565.238,6571.314,6594.076,6601.821,6636.651,6646.928,6668.256,6685.433,6703.545,6719.965,6729.509,6814.384,6836.543,6848.055,6860.203,6876.881,6882.322,6889.39,6907.714,6915.479,6975.335,6995.02,7010.091,7033.739,7055.295,7063.828,7078.801,7091.127,7111.621,7124.787,7130.525,7134.938,7152.25,7162.878,7172.33,7181.329,7190.206,7195.5,7202.931,7208.794,7221.253,7230.003,7238.874,7252.231,7269.169,7280.381,7289.323,7299.486,7310.959,7321.867,7332.565,7354.854,7380.624,7388.786,7398.594,7415.409,7420.823,7446.314,7459.491,7483.46,7503.972,7553.344,7566.025,7577.073,7595.195,7624.189,7629.505,7637.418,7641.83,7649.674,7652.566,7681.822,7696.192,7708.96,7721.852,7731.612,7760.046,7793.955,7830.118,7834.524,7845.961,7881.575,7892.169,7913.742,7924.783,7940.395,7954.131,7957.887,7961.571,7973.107,7978.555,7984.403,8011.844,8021.742,8030.828,8038.141,8050.542,8058.305,8067.407,8095.192,8112.685,8128.345,8135.168,8137.48,8154.713,8182.333,8187.353,8214.495,8221.444,8244.285,8257.948,8271.102,8278.374,8297.123,8309.393,8317.956,8340.461,8371.849,8416.249,8425.721,8433.258,8450.107,8456.811,8476.387,8493.629,8500.841,8503.8,8508.711,8518.337,8528.666,8533.771,8536.133,8540.565,8542.667,8563.164,8570.63,8577.822,8595.653,8606.448,8611.319,8619.494,8626.233,8633.481,8647.95,8657.245,8666.157,8679.822,8684.768,8688.584,8693.199,8700.037,8706.962,8712.443,8717.174,8723.12,8731.135,8736.779,8752.531,8759.436,8764.39,8768.142,8778.368,8787.531,8798.57,8805.107,8834.496,8844.172,8852.293,8862.536,8866.312,8873.959,8896.404,8911.633,8919.226,8930.444,8934.545,8945.355,8952.684,8957.644,8966.737,8972.756,8976.451,8981.879,8986.689,8993.213,9003.683,9006.363,9010.164,9015.724,9021.516,9034.041,9038.468,9043.444,9071.792,9080.726,9086.434,9107.239,9117.619,9123.578,9127.198,9133.819,9148.544,9237.719,9264.227,9277.56,9280.898,9284.608,9289.97,9295.122,9302.081,9317.009,9330.199,9349.179,9360.606,9366.293,9374.536]
      },
      "geometry": {
        "type": "LineString",
        "coordinates": [
          [-121.413703, 47.427371, 932.75],
          [-121.413588, 47.427415, 934.5],
          [-121.413432, 47.427538, 937.0],
          [-121.413167, 47.427563, 939.0],
          [-121.413121, 47.427514, 939.0],
          [-121.412988, 47.427410, 939.0],
          [-121.412845, 47.427326, 939.25],
          [-121.412690, 47.427222, 939.75],
          [-121.412457, 47.427169, 941.0],
          [-121.412209, 47.427165, 942.25],
          [-121.412038, 47.427121, 943.0],
          [-121.411864, 47.427148, 944.0],
          [-121.411771, 47.427202, 944.75],
          [-121.411719, 47.427255, 945.5],
          [-121.411648, 47.427280, 946.0],
          [-121.411543, 47.427224, 946.5],
          [-121.411437, 47.427087, 946.75],
          [-121.411296, 47.427038, 947.75],
          [-121.410915, 47.427009, 951.0],
          [-121.410674, 47.427042, 953.5],
          [-121.410488, 47.426972, 955.5],
          [-121.410325, 47.426857, 957.0],
          [-121.409966, 47.426810, 960.75],
          [-121.409758, 47.426812, 963.75],
          [-121.409585, 47.426824, 966.25],
          [-121.409425, 47.426873, 969.0],
          [-121.409156, 47.426913, 973.0],
          [-121.408893, 47.426906, 977.0],
          [-121.408815, 47.426882, 978.0],
          [-121.408732, 47.426848, 978.75],
          [-121.408662, 47.426759, 979.0],
          [-121.408625, 47.426672, 978.75],
          [-121.408504, 47.426463, 978.5],
          [-121.408453, 47.426403, 978.5],
          [-121.408365, 47.426329, 978.75],
          [-121.408220, 47.426229, 980.5],
          [-121.407984, 47.426164, 984.25],
          [-121.407906, 47.426120, 985.0],
          [-121.407828, 47.426048, 985.25],
          [-121.407740, 47.426001, 986.0],
          [-121.407517, 47.425902, 988.0],
          [-121.407187, 47.425716, 991.5],
          [-121.407112, 47.425652, 992.0],
          [-121.406962, 47.425451, 991.75],
          [-121.406892, 47.425385, 992.25],
          [-121.406819, 47.425244, 991.5],
          [-121.406610, 47.425046, 993.25],
          [-121.406527, 47.425013, 995.0],
          [-121.406482, 47.424988, 995.75],
          [-121.406431, 47.424926, 996.25],
          [-121.406406, 47.424854, 995.75],
          [-121.406256, 47.424660, 996.75],
          [-121.406141, 47.424554, 997.75],
          [-121.406004, 47.424445, 999.25],
          [-121.405924, 47.424347, 999.25],
          [-121.405599, 47.424052, 1002.5],
          [-121.405486, 47.423975, 1004.25],
          [-121.405324, 47.423800, 1006.0],
          [-121.405154, 47.423703, 1009.25],
          [-121.405073, 47.423603, 1010.0],
          [-121.404998, 47.423585, 1011.75],
          [-121.404971, 47.423602, 1012.75],
          [-121.404971, 47.423665, 1013.75],
          [-121.405087, 47.423884, 1014.0],
          [-121.405110, 47.424005, 1015.25],
          [-121.405068, 47.424068, 1017.5],
          [-121.405081, 47.424117, 1017.75],
          [-121.405151, 47.424175, 1016.75],
          [-121.405283, 47.424413, 1017.5],
          [-121.405288, 47.424647, 1021.25],
          [-121.405272, 47.424768, 1024.0],
          [-121.405283, 47.424983, 1027.5],
          [-121.405320, 47.425269, 1030.75],
          [-121.405358, 47.425699, 1036.5],
          [-121.405358, 47.425835, 1038.5],
          [-121.405334, 47.426007, 1043.5],
          [-121.405368, 47.426066, 1044.25],
          [-121.405446, 47.426158, 1044.5],
          [-121.405556, 47.426242, 1043.5],
          [-121.405658, 47.426298, 1042.0],
          [-121.405722, 47.426369, 1042.0],
          [-121.405849, 47.426587, 1043.5],
          [-121.405998, 47.426876, 1046.25],
          [-121.406047, 47.427017, 1048.0],
          [-121.406018, 47.427160, 1052.25],
          [-121.406060, 47.427204, 1052.25],
          [-121.406063, 47.427253, 1053.25],
          [-121.406082, 47.427307, 1054.0],
          [-121.406138, 47.427349, 1053.5],
          [-121.406245, 47.427499, 1054.0],
          [-121.406283, 47.427588, 1055.5],
          [-121.406329, 47.427866, 1061.75],
          [-121.406398, 47.428053, 1064.5],
          [-121.406468, 47.428173, 1065.25],
          [-121.406519, 47.428361, 1068.5],
          [-121.406610, 47.428487, 1069.0],
          [-121.406720, 47.428610, 1068.75],
          [-121.406840, 47.428769, 1069.0],
          [-121.406892, 47.428868, 1070.0],
          [-121.407026, 47.429167, 1073.75],
          [-121.407064, 47.429312, 1076.75],
          [-121.407208, 47.429664, 1081.25],
          [-121.407281, 47.429791, 1081.75],
          [-121.407404, 47.429947, 1080.25],
          [-121.407447, 47.430027, 1080.0],
          [-121.407458, 47.430167, 1082.25],
          [-121.407436, 47.430394, 1088.0],
          [-121.407392, 47.430649, 1095.25],
          [-121.407389, 47.430874, 1099.0],
          [-121.407369, 47.431012, 1099.75],
          [-121.407308, 47.431079, 1102.75],
          [-121.407278, 47.431125, 1104.25],
          [-121.407278, 47.431185, 1104.25],
          [-121.407294, 47.431270, 1103.25],
          [-121.407281, 47.431346, 1104.0],
          [-121.407208, 47.431533, 1107.5],
          [-121.407120, 47.431707, 1112.25],
          [-121.407101, 47.431811, 1113.5],
          [-121.407101, 47.431916, 1113.75],
          [-121.407128, 47.431998, 1112.75],
          [-121.407139, 47.432068, 1112.5],
          [-121.407127, 47.432152, 1113.5],
          [-121.406986, 47.432400, 1119.75],
          [-121.406967, 47.432489, 1120.75],
          [-121.406897, 47.432616, 1122.25],
          [-121.406767, 47.432788, 1125.5],
          [-121.406675, 47.432932, 1127.5],
          [-121.406632, 47.433073, 1127.25],
          [-121.406578, 47.433101, 1128.5],
          [-121.406541, 47.433055, 1129.75],
          [-121.406543, 47.432935, 1131.0],
          [-121.406495, 47.432770, 1133.75],
          [-121.406436, 47.432643, 1136.75],
          [-121.406449, 47.432538, 1137.5],
          [-121.406431, 47.432397, 1139.0],
          [-121.406323, 47.432037, 1144.5],
          [-121.406343, 47.431948, 1144.25],
          [-121.406377, 47.431876, 1143.75],
          [-121.406444, 47.431691, 1142.5],
          [-121.406463, 47.431591, 1141.75],
          [-121.406460, 47.431504, 1141.75],
          [-121.406420, 47.431448, 1143.25],
          [-121.406365, 47.431389, 1145.0],
          [-121.406291, 47.431274, 1147.5],
          [-121.406272, 47.431216, 1148.25],
          [-121.406287, 47.431135, 1147.75],
          [-121.406337, 47.431074, 1145.75],
          [-121.406368, 47.430996, 1144.5],
          [-121.406350, 47.430907, 1145.0],
          [-121.406355, 47.430795, 1144.25],
          [-121.406240, 47.430573, 1145.25],
          [-121.405937, 47.430296, 1153.5],
          [-121.405798, 47.430019, 1155.5],
          [-121.405679, 47.429856, 1155.0],
          [-121.405650, 47.429776, 1153.25],
          [-121.405586, 47.429662, 1151.75],
          [-121.405545, 47.429653, 1153.0],
          [-121.405532, 47.429715, 1155.75],
          [-121.405572, 47.429757, 1155.75],
          [-121.405598, 47.429831, 1157.5],
          [-121.405578, 47.429893, 1160.5],
          [-121.405592, 47.429961, 1162.25],
          [-121.405686, 47.430190, 1162.5],
          [-121.405666, 47.430341, 1165.5],
          [-121.405682, 47.430417, 1165.75],
          [-121.405749, 47.430499, 1164.0],
          [-121.405797, 47.430583, 1163.0],
          [-121.405814, 47.430682, 1163.75],
          [-121.405814, 47.430825, 1165.5],
          [-121.405749, 47.430983, 1168.25],
          [-121.405696, 47.431058, 1170.5],
          [-121.405661, 47.431176, 1171.75],
          [-121.405653, 47.431297, 1171.75],
          [-121.405629, 47.431372, 1172.5],
          [-121.405562, 47.431415, 1175.0],
          [-121.405409, 47.431655, 1180.25],
          [-121.405140, 47.432027, 1184.75],
          [-121.405021, 47.432270, 1185.0],
          [-121.404955, 47.432357, 1185.5],
          [-121.404853, 47.432435, 1187.0],
          [-121.404234, 47.432867, 1189.0],
          [-121.403660, 47.433226, 1186.0],
          [-121.403480, 47.433268, 1187.0],
          [-121.403274, 47.433325, 1187.75],
          [-121.403185, 47.433375, 1188.25],
          [-121.403040, 47.433485, 1188.25],
          [-121.402866, 47.433591, 1188.5],
          [-121.402756, 47.433636, 1189.0],
          [-121.402480, 47.433724, 1191.0],
          [-121.402338, 47.433776, 1193.0],
          [-121.402195, 47.433839, 1194.0],
          [-121.402080, 47.433872, 1195.5],
          [-121.402000, 47.433912, 1195.5],
          [-121.401889, 47.434015, 1192.5],
          [-121.401833, 47.434099, 1188.75],
          [-121.401788, 47.434147, 1186.75],
          [-121.401713, 47.434209, 1186.25],
          [-121.401638, 47.434260, 1187.0],
          [-121.401511, 47.434327, 1189.0],
          [-121.401460, 47.434365, 1189.25],
          [-121.401412, 47.434436, 1188.5],
          [-121.401310, 47.434549, 1187.5],
          [-121.401139, 47.434759, 1183.5],
          [-121.400686, 47.435116, 1176.25],
          [-121.400449, 47.435207, 1177.75],
          [-121.400355, 47.435229, 1178.5],
          [-121.400149, 47.435298, 1179.25],
          [-121.399987, 47.435364, 1179.25],
          [-121.399926, 47.435405, 1180.25],
          [-121.399873, 47.435454, 1180.5],
          [-121.399781, 47.435576, 1178.75],
          [-121.399671, 47.435693, 1177.75],
          [-121.399583, 47.435817, 1175.25],
          [-121.399408, 47.435998, 1178.25],
          [-121.399207, 47.436225, 1179.75],
          [-121.399157, 47.436300, 1179.25],
          [-121.399151, 47.436396, 1176.25],
          [-121.399159, 47.436468, 1173.25],
          [-121.399152, 47.436530, 1171.5],
          [-121.399087, 47.436604, 1172.75],
          [-121.398907, 47.436775, 1178.75],
          [-121.398872, 47.436835, 1179.0],
          [-121.398840, 47.436945, 1177.75],
          [-121.398843, 47.437027, 1175.25],
          [-121.398773, 47.437257, 1172.25],
          [-121.398728, 47.437360, 1171.75],
          [-121.398534, 47.437689, 1172.5],
          [-121.398368, 47.438110, 1167.0],
          [-121.398306, 47.438164, 1168.25],
          [-121.398275, 47.438225, 1168.25],
          [-121.398189, 47.438262, 1172.5],
          [-121.398147, 47.438313, 1173.5],
          [-121.398132, 47.438394, 1173.25],
          [-121.398070, 47.438463, 1176.25],
          [-121.397998, 47.438524, 1179.5],
          [-121.397893, 47.438657, 1183.0],
          [-121.397756, 47.438936, 1183.5],
          [-121.397569, 47.439185, 1184.25],
          [-121.397415, 47.439311, 1188.5],
          [-121.397279, 47.439391, 1192.75],
          [-121.397225, 47.439447, 1194.25],
          [-121.397257, 47.439543, 1191.25],
          [-121.397241, 47.439598, 1190.75],
          [-121.397024, 47.439897, 1193.5],
          [-121.396834, 47.440113, 1196.75],
          [-121.396665, 47.440274, 1200.0],
          [-121.396453, 47.440521, 1204.25],
          [-121.396286, 47.440766, 1206.25],
          [-121.395725, 47.441310, 1218.75],
          [-121.395447, 47.441622, 1222.75],
          [-121.395273, 47.441735, 1225.75],
          [-121.395117, 47.441880, 1227.0],
          [-121.394994, 47.442039, 1226.5],
          [-121.394929, 47.442137, 1226.25],
          [-121.394870, 47.442312, 1223.5],
          [-121.394618, 47.442636, 1222.25],
          [-121.394297, 47.443108, 1221.75],
          [-121.394085, 47.443322, 1225.0],
          [-121.393913, 47.443383, 1229.75],
          [-121.393745, 47.443460, 1234.25],
          [-121.393687, 47.443544, 1234.5],
          [-121.393337, 47.443743, 1241.5],
          [-121.393304, 47.443801, 1241.5],
          [-121.393298, 47.443932, 1238.75],
          [-121.393246, 47.444045, 1238.5],
          [-121.393209, 47.444050, 1240.0],
          [-121.393198, 47.444021, 1241.25],
          [-121.393217, 47.443901, 1243.25],
          [-121.393205, 47.443869, 1244.5],
          [-121.393175, 47.443839, 1246.5],
          [-121.393169, 47.443797, 1248.0],
          [-121.393232, 47.443695, 1247.5],
          [-121.393279, 47.443583, 1247.75],
          [-121.393409, 47.443394, 1247.0],
          [-121.393463, 47.443283, 1247.25],
          [-121.393553, 47.443169, 1246.0],
          [-121.393551, 47.443139, 1246.5],
          [-121.393518, 47.443052, 1249.25],
          [-121.393568, 47.442927, 1249.5],
          [-121.393582, 47.442734, 1252.25],
          [-121.393653, 47.442339, 1260.0],
          [-121.393764, 47.442100, 1265.25],
          [-121.393805, 47.441931, 1270.0],
          [-121.393905, 47.441704, 1274.0],
          [-121.393939, 47.441608, 1275.5],
          [-121.394047, 47.441493, 1273.75],
          [-121.394091, 47.441150, 1281.0],
          [-121.394255, 47.440805, 1283.0],
          [-121.394581, 47.439834, 1288.0],
          [-121.394601, 47.439717, 1288.25],
          [-121.394530, 47.439598, 1292.0],
          [-121.394457, 47.439523, 1295.75],
          [-121.394371, 47.439358, 1300.25],
          [-121.394363, 47.439173, 1301.75],
          [-121.394304, 47.438966, 1305.0],
          [-121.394274, 47.438747, 1307.0],
          [-121.394297, 47.438649, 1307.0],
          [-121.394331, 47.438551, 1306.5],
          [-121.394310, 47.438446, 1307.75],
          [-121.394270, 47.438330, 1309.25],
          [-121.394157, 47.438224, 1311.75],
          [-121.393995, 47.438095, 1315.25],
          [-121.393942, 47.438021, 1316.25],
          [-121.393940, 47.437806, 1315.25],
          [-121.393912, 47.437735, 1315.5],
          [-121.393878, 47.437603, 1315.25],
          [-121.393791, 47.437455, 1316.0],
          [-121.393788, 47.437375, 1315.75],
          [-121.393785, 47.437269, 1315.25],
          [-121.393768, 47.437147, 1315.0],
          [-121.393789, 47.437087, 1314.25],
          [-121.393897, 47.437050, 1312.5],
          [-121.393946, 47.436972, 1311.75],
          [-121.393950, 47.436823, 1311.0],
          [-121.393830, 47.436729, 1312.25],
          [-121.393723, 47.436729, 1313.5],
          [-121.393675, 47.436722, 1314.0],
          [-121.393642, 47.436706, 1314.5],
          [-121.393640, 47.436682, 1314.25],
          [-121.393651, 47.436662, 1314.25],
          [-121.393693, 47.436635, 1314.5],
          [-121.393720, 47.436582, 1315.75],
          [-121.393720, 47.436553, 1316.75],
          [-121.393753, 47.436479, 1318.5],
          [-121.393753, 47.436414, 1320.5],
          [-121.393801, 47.436396, 1320.5],
          [-121.393809, 47.436368, 1321.25],
          [-121.393798, 47.436298, 1323.5],
          [-121.393820, 47.436261, 1324.25],
          [-121.393857, 47.436221, 1325.25],
          [-121.393881, 47.436156, 1327.0],
          [-121.393892, 47.436078, 1329.25],
          [-121.393961, 47.435982, 1331.75],
          [-121.394023, 47.435840, 1335.75],
          [-121.394135, 47.435712, 1340.75],
          [-121.394331, 47.435575, 1345.25],
          [-121.394527, 47.435398, 1351.75],
          [-121.394964, 47.435169, 1360.0],
          [-121.395220, 47.434940, 1368.0],
          [-121.395478, 47.434844, 1367.5],
          [-121.395541, 47.434784, 1368.75],
          [-121.395617, 47.434742, 1369.25],
          [-121.395833, 47.434692, 1367.25],
          [-121.395958, 47.434683, 1366.5],
          [-121.396080, 47.434716, 1364.25],
          [-121.396209, 47.434690, 1364.0],
          [-121.396276, 47.434634, 1365.25],
          [-121.396528, 47.434519, 1366.0],
          [-121.396603, 47.434524, 1365.25],
          [-121.396684, 47.434571, 1363.0],
          [-121.396751, 47.434538, 1362.75],
          [-121.396781, 47.434485, 1363.75],
          [-121.396879, 47.434421, 1364.0],
          [-121.396909, 47.434374, 1364.75],
          [-121.396925, 47.434260, 1367.5],
          [-121.396997, 47.434171, 1369.0],
          [-121.397049, 47.434139, 1369.25],
          [-121.397140, 47.434136, 1368.25],
          [-121.397182, 47.434104, 1368.75],
          [-121.397223, 47.434006, 1371.5],
          [-121.397220, 47.433924, 1374.25],
          [-121.397236, 47.433812, 1378.0],
          [-121.397268, 47.433702, 1381.5],
          [-121.397327, 47.433603, 1384.0],
          [-121.397378, 47.433413, 1389.75],
          [-121.397577, 47.433077, 1399.5],
          [-121.397628, 47.433041, 1400.5],
          [-121.397679, 47.433023, 1400.75],
          [-121.397748, 47.433034, 1399.75],
          [-121.397826, 47.433097, 1396.75],
          [-121.397981, 47.433119, 1394.5],
          [-121.398089, 47.433155, 1392.0],
          [-121.398220, 47.433142, 1391.5],
          [-121.398322, 47.433101, 1392.25],
          [-121.398499, 47.432950, 1398.5],
          [-121.398588, 47.432897, 1400.75],
          [-121.398682, 47.432901, 1400.25],
          [-121.398735, 47.432876, 1401.25],
          [-121.398733, 47.432832, 1403.25],
          [-121.398609, 47.432825, 1403.75],
          [-121.398515, 47.432843, 1403.25],
          [-121.398435, 47.432841, 1403.5],
          [-121.398314, 47.432796, 1405.75],
          [-121.398239, 47.432790, 1406.5],
          [-121.398153, 47.432774, 1407.75],
          [-121.398043, 47.432714, 1410.75],
          [-121.398035, 47.432643, 1413.75],
          [-121.397987, 47.432602, 1415.5],
          [-121.397950, 47.432518, 1419.0],
          [-121.397828, 47.432459, 1421.0],
          [-121.397673, 47.432428, 1422.25],
          [-121.397523, 47.432417, 1423.25],
          [-121.397402, 47.432451, 1424.0],
          [-121.397268, 47.432559, 1423.25],
          [-121.397112, 47.432638, 1423.0],
          [-121.397046, 47.432728, 1420.75],
          [-121.396928, 47.432737, 1422.5],
          [-121.396885, 47.432772, 1422.0],
          [-121.396751, 47.432807, 1423.0],
          [-121.396615, 47.432791, 1425.75],
          [-121.396546, 47.432861, 1424.0],
          [-121.396432, 47.432866, 1425.5],
          [-121.396409, 47.432894, 1424.75],
          [-121.396324, 47.432910, 1425.5],
          [-121.396224, 47.432981, 1424.5],
          [-121.396068, 47.433016, 1425.75],
          [-121.395723, 47.433021, 1430.75],
          [-121.395570, 47.433036, 1431.75],
          [-121.395297, 47.433044, 1434.25],
          [-121.395079, 47.433122, 1436.0],
          [-121.394983, 47.433182, 1436.75],
          [-121.394994, 47.433236, 1436.5],
          [-121.394958, 47.433270, 1436.5],
          [-121.394887, 47.433253, 1437.25],
          [-121.394811, 47.433290, 1438.0],
          [-121.394781, 47.433355, 1437.5],
          [-121.394726, 47.433389, 1436.75],
          [-121.394643, 47.433502, 1433.75],
          [-121.394475, 47.433555, 1433.75],
          [-121.394353, 47.433543, 1435.75],
          [-121.394218, 47.433477, 1439.5],
          [-121.394004, 47.433427, 1442.0],
          [-121.393878, 47.433411, 1442.25],
          [-121.393779, 47.433464, 1441.0],
          [-121.393623, 47.433451, 1441.5],
          [-121.393532, 47.433422, 1442.25],
          [-121.393398, 47.433444, 1441.75],
          [-121.393226, 47.433538, 1440.0],
          [-121.393110, 47.433729, 1437.25],
          [-121.393049, 47.433787, 1437.0],
          [-121.392986, 47.433809, 1437.0],
          [-121.392920, 47.433806, 1437.5],
          [-121.392698, 47.433699, 1439.5],
          [-121.392431, 47.433691, 1440.25],
          [-121.392326, 47.433663, 1440.25],
          [-121.392246, 47.433678, 1440.5],
          [-121.391615, 47.434052, 1447.5],
          [-121.391416, 47.434088, 1450.5],
          [-121.391231, 47.434129, 1453.75],
          [-121.391051, 47.434129, 1456.0],
          [-121.391019, 47.434160, 1457.25],
          [-121.390990, 47.434207, 1456.25],
          [-121.390942, 47.434239, 1455.75],
          [-121.390875, 47.434227, 1457.25],
          [-121.390549, 47.434064, 1461.75],
          [-121.390463, 47.434034, 1462.25],
          [-121.390383, 47.434017, 1463.25],
          [-121.390372, 47.434044, 1464.25],
          [-121.390447, 47.434091, 1464.25],
          [-121.390510, 47.434258, 1462.25],
          [-121.390465, 47.434302, 1461.5],
          [-121.390424, 47.434301, 1462.25],
          [-121.390391, 47.434279, 1463.5],
          [-121.390332, 47.434187, 1467.75],
          [-121.390254, 47.434137, 1468.75],
          [-121.390112, 47.434095, 1469.75],
          [-121.389937, 47.434082, 1472.0],
          [-121.389837, 47.434109, 1473.5],
          [-121.389751, 47.434147, 1475.5],
          [-121.389602, 47.434315, 1472.25],
          [-121.389547, 47.434334, 1472.0],
          [-121.389511, 47.434334, 1472.5],
          [-121.389464, 47.434289, 1474.25],
          [-121.389353, 47.434220, 1477.5],
          [-121.389036, 47.434144, 1481.0],
          [-121.388885, 47.434140, 1481.5],
          [-121.388807, 47.434126, 1481.75],
          [-121.388544, 47.434026, 1482.5],
          [-121.388444, 47.433996, 1483.25],
          [-121.388012, 47.433933, 1488.0],
          [-121.387874, 47.433936, 1489.5],
          [-121.387617, 47.433988, 1492.25],
          [-121.387430, 47.434055, 1494.5],
          [-121.387258, 47.434133, 1498.0],
          [-121.387119, 47.434231, 1499.0],
          [-121.387018, 47.434282, 1499.5],
          [-121.386207, 47.434612, 1509.25],
          [-121.386014, 47.434744, 1511.5],
          [-121.385922, 47.434815, 1513.0],
          [-121.385850, 47.434911, 1513.25],
          [-121.385786, 47.435086, 1508.75],
          [-121.385745, 47.435142, 1507.25],
          [-121.385638, 47.435178, 1507.75],
          [-121.385364, 47.435222, 1511.5],
          [-121.385273, 47.435276, 1512.0],
          [-121.385110, 47.435998, 1505.25],
          [-121.385011, 47.436223, 1509.5],
          [-121.384912, 47.436372, 1513.0],
          [-121.384856, 47.436613, 1515.5],
          [-121.384863, 47.436839, 1516.5],
          [-121.384930, 47.436922, 1514.25],
          [-121.384973, 47.437095, 1513.5],
          [-121.385083, 47.437225, 1509.75],
          [-121.385147, 47.437479, 1509.0],
          [-121.385199, 47.437635, 1510.0],
          [-121.385248, 47.437699, 1509.5],
          [-121.385264, 47.437753, 1510.25],
          [-121.385399, 47.437951, 1509.75],
          [-121.385498, 47.438070, 1509.25],
          [-121.385555, 47.438183, 1510.0],
          [-121.385604, 47.438286, 1511.0],
          [-121.385618, 47.438393, 1513.75],
          [-121.385656, 47.438455, 1514.5],
          [-121.385653, 47.438539, 1517.25],
          [-121.385680, 47.438597, 1518.0],
          [-121.385774, 47.438712, 1518.25],
          [-121.385867, 47.438783, 1517.5],
          [-121.385934, 47.438866, 1518.25],
          [-121.385951, 47.438997, 1521.75],
          [-121.385950, 47.439148, 1526.25],
          [-121.385982, 47.439242, 1528.25],
          [-121.386039, 47.439315, 1528.5],
          [-121.386143, 47.439384, 1527.25],
          [-121.386286, 47.439464, 1524.5],
          [-121.386377, 47.439574, 1523.5],
          [-121.386440, 47.439695, 1523.25],
          [-121.386501, 47.439947, 1525.0],
          [-121.386553, 47.440209, 1529.5],
          [-121.386561, 47.440287, 1531.25],
          [-121.386556, 47.440378, 1534.25],
          [-121.386528, 47.440516, 1539.5],
          [-121.386550, 47.440561, 1539.75],
          [-121.386741, 47.440763, 1537.25],
          [-121.386815, 47.440874, 1538.75],
          [-121.386870, 47.441055, 1546.25],
          [-121.386951, 47.441202, 1550.5],
          [-121.387162, 47.441522, 1556.5],
          [-121.387270, 47.441605, 1555.0],
          [-121.387345, 47.441689, 1554.75],
          [-121.387431, 47.441843, 1556.25],
          [-121.387493, 47.442072, 1561.75],
          [-121.387516, 47.442117, 1562.25],
          [-121.387513, 47.442176, 1564.75],
          [-121.387537, 47.442207, 1564.75],
          [-121.387622, 47.442246, 1562.0],
          [-121.387642, 47.442273, 1562.0],
          [-121.387661, 47.442494, 1569.5],
          [-121.387635, 47.442604, 1572.75],
          [-121.387652, 47.442704, 1573.5],
          [-121.387700, 47.442809, 1572.75],
          [-121.387697, 47.442886, 1574.25],
          [-121.387752, 47.443126, 1575.5],
          [-121.387771, 47.443411, 1579.0],
          [-121.387726, 47.443695, 1584.75],
          [-121.387702, 47.443728, 1586.25],
          [-121.387686, 47.443814, 1588.25],
          [-121.387694, 47.444097, 1591.25],
          [-121.387709, 47.444183, 1591.5],
          [-121.387717, 47.444386, 1589.5],
          [-121.387689, 47.444494, 1590.25],
          [-121.387681, 47.444654, 1589.5],
          [-121.387772, 47.444807, 1583.5],
          [-121.387770, 47.444850, 1583.25],
          [-121.387729, 47.444816, 1585.75],
          [-121.387638, 47.444712, 1591.5],
          [-121.387621, 47.444658, 1592.75],
          [-121.387577, 47.444610, 1595.25],
          [-121.387464, 47.444413, 1601.75],
          [-121.387452, 47.444336, 1602.75],
          [-121.387419, 47.444270, 1604.75],
          [-121.387361, 47.444240, 1607.75],
          [-121.387328, 47.444157, 1609.5],
          [-121.387269, 47.444119, 1612.0],
          [-121.387229, 47.444062, 1613.25],
          [-121.387135, 47.443882, 1616.25],
          [-121.387121, 47.443749, 1615.5],
          [-121.387078, 47.443629, 1616.25],
          [-121.387036, 47.443579, 1618.0],
          [-121.387014, 47.443583, 1619.0],
          [-121.387024, 47.443721, 1620.0],
          [-121.386928, 47.443895, 1626.75],
          [-121.386919, 47.443935, 1627.5],
          [-121.386900, 47.444121, 1630.5],
          [-121.386931, 47.444171, 1629.5],
          [-121.386967, 47.444365, 1628.0],
          [-121.386971, 47.444488, 1628.0],
          [-121.387012, 47.444623, 1626.0],
          [-121.387046, 47.444705, 1624.25],
          [-121.387010, 47.444905, 1626.5],
          [-121.386965, 47.445028, 1628.25],
          [-121.386908, 47.445112, 1628.25],
          [-121.386704, 47.445253, 1634.75],
          [-121.386469, 47.445461, 1639.25],
          [-121.386145, 47.445655, 1650.25],
          [-121.386106, 47.445724, 1650.0],
          [-121.386038, 47.445756, 1652.75],
          [-121.385938, 47.445847, 1655.25],
          [-121.385879, 47.445875, 1657.75],
          [-121.385773, 47.445984, 1658.75],
          [-121.385718, 47.446123, 1655.5],
          [-121.385668, 47.446171, 1655.5],
          [-121.385655, 47.446198, 1654.75],
          [-121.385608, 47.446233, 1655.0],
          [-121.385581, 47.446332, 1652.25],
          [-121.385570, 47.446457, 1647.75],
          [-121.385515, 47.446506, 1647.5],
          [-121.385502, 47.446532, 1646.75],
          [-121.385492, 47.446587, 1645.0],
          [-121.385497, 47.446615, 1643.5],
          [-121.385166, 47.446655, 1651.5],
          [-121.385062, 47.446692, 1652.5],
          [-121.384951, 47.446697, 1655.25],
          [-121.384714, 47.446745, 1657.5],
          [-121.384567, 47.446755, 1660.0],
          [-121.384502, 47.446772, 1660.5],
          [-121.384399, 47.446775, 1662.5],
          [-121.384323, 47.446816, 1661.5],
          [-121.384232, 47.446803, 1664.25],
          [-121.384027, 47.446794, 1663.25],
          [-121.383869, 47.446827, 1657.75],
          [-121.383711, 47.446846, 1653.75],
          [-121.383503, 47.446983, 1645.25],
          [-121.383449, 47.447048, 1642.75],
          [-121.383374, 47.447075, 1641.5],
          [-121.383283, 47.447097, 1640.0],
          [-121.383147, 47.447094, 1638.25],
          [-121.383076, 47.447169, 1637.0],
          [-121.383060, 47.447237, 1636.5],
          [-121.382990, 47.447276, 1636.25],
          [-121.382872, 47.447295, 1636.25],
          [-121.382768, 47.447386, 1637.5],
          [-121.382758, 47.447470, 1639.0],
          [-121.382598, 47.447671, 1638.5],
          [-121.382543, 47.447758, 1637.75],
          [-121.382516, 47.447828, 1637.0],
          [-121.382438, 47.447850, 1637.0],
          [-121.382226, 47.447869, 1637.25],
          [-121.382063, 47.447920, 1637.5],
          [-121.381899, 47.448009, 1638.75],
          [-121.381770, 47.448029, 1640.0],
          [-121.381289, 47.448158, 1644.25],
          [-121.381165, 47.448241, 1647.25],
          [-121.381120, 47.448321, 1650.0],
          [-121.381037, 47.448419, 1649.5],
          [-121.381044, 47.448462, 1648.5],
          [-121.381113, 47.448542, 1646.0],
          [-121.381122, 47.448841, 1639.5],
          [-121.381023, 47.449035, 1638.25],
          [-121.381013, 47.449139, 1636.5],
          [-121.380903, 47.449278, 1635.5],
          [-121.380821, 47.449283, 1637.75],
          [-121.380681, 47.449409, 1633.5],
          [-121.380546, 47.449465, 1632.25],
          [-121.380487, 47.449525, 1631.25],
          [-121.380317, 47.449600, 1631.25],
          [-121.380259, 47.449677, 1631.0],
          [-121.380306, 47.449724, 1629.75],
          [-121.380228, 47.449787, 1630.25],
          [-121.380214, 47.449858, 1629.75],
          [-121.380099, 47.449896, 1631.75],
          [-121.379994, 47.450010, 1633.5],
          [-121.379944, 47.450024, 1632.25],
          [-121.379860, 47.450028, 1630.5],
          [-121.379749, 47.450066, 1627.75],
          [-121.379663, 47.450122, 1626.0],
          [-121.379502, 47.450250, 1624.25],
          [-121.379460, 47.450311, 1624.5],
          [-121.379379, 47.450355, 1624.5],
          [-121.379322, 47.450712, 1630.0],
          [-121.379317, 47.450831, 1632.0],
          [-121.379292, 47.450905, 1633.0],
          [-121.379249, 47.451147, 1635.5],
          [-121.379123, 47.451236, 1637.75],
          [-121.379096, 47.451307, 1638.0],
          [-121.379039, 47.451335, 1637.25],
          [-121.378973, 47.451404, 1637.75],
          [-121.378788, 47.451516, 1639.5],
          [-121.378385, 47.452243, 1653.25],
          [-121.378338, 47.452495, 1655.75],
          [-121.378265, 47.452619, 1655.5],
          [-121.378232, 47.452647, 1654.25],
          [-121.378169, 47.452660, 1651.0],
          [-121.378153, 47.452721, 1652.0],
          [-121.378188, 47.452771, 1655.5],
          [-121.378162, 47.452843, 1656.25],
          [-121.378066, 47.452994, 1655.5],
          [-121.378038, 47.453124, 1658.0],
          [-121.377937, 47.453305, 1658.5],
          [-121.377888, 47.453419, 1660.0],
          [-121.377828, 47.453461, 1658.25],
          [-121.377781, 47.453543, 1659.0]
        ]
      }
    }
  ]
}
